[{"OBJECT_NAME":"SITRO-AIS 18","OBJECT_ID":"2024-199BH","EPOCH":"2026-03-09T22:56:51.354816","MEAN_MOTION":14.97350577,"ECCENTRICITY":0.00069154,"INCLINATION":97.331,"RA_OF_ASC_NODE":274.6581,"ARG_OF_PERICENTER":53.7115,"MEAN_ANOMALY":306.4746,"EPHEMERIS_TYPE":0,"CLASSIFICATION_TYPE":"U","NORAD_CAT_ID":61790,"ELEMENT_SET_NO":999,"REV_AT_EPOCH":11718,"BSTAR":0.00032194999,"MEAN_MOTION_DOT":3.687e-5,"MEAN_MOTION_DDOT":0},{"OBJECT_NAME":"STARLINK-36106","OBJECT_ID":"2025-293R","EPOCH":"2026-03-09T12:10:20.378784","MEAN_MOTION":14.98345506,"ECCENTRICITY":0.00032636,"INCLINATION":70.0003,"RA_OF_ASC_NODE":94.7881,"ARG_OF_PERICENTER":267.91,"MEAN_ANOMALY":92.1685,"EPHEMERIS_TYPE":0,"CLASSIFICATION_TYPE":"U","NORAD_CAT_ID":67018,"ELEMENT_SET_NO":999,"REV_AT_EPOCH":1486,"BSTAR":0.00032957654,"MEAN_MOTION_DOT":3.843e-5,"MEAN_MOTION_DDOT":0}]
